{
    "links": {
        "self": "http://www.neowsapp.com/rest/v1/neo/54054373?api_key=iIulBulltgU6a56xZRHN4H3l9WmuAYTsLGpBGhQ2"
    },
    "id": "54054373",
    "neo_reference_id": "54054373",
    "name": "(2020 RD8)",
    "designation": "2020 RD8",
    "nasa_jpl_url": "http://ssd.jpl.nasa.gov/sbdb.cgi?sstr=54054373",
    "absolute_magnitude_h": 23.243,
    "estimated_diameter": {
        "kilometers": {
            "estimated_diameter_min": 0.0596973395,
            "estimated_diameter_max": 0.1334873092
        },
        "meters": {
            "estimated_diameter_min": 59.6973395028,
            "estimated_diameter_max": 133.4873092041
        },
        "miles": {
            "estimated_diameter_min": 0.0370941955,
            "estimated_diameter_max": 0.0829451428
        },
        "feet": {
            "estimated_diameter_min": 195.8574193343,
            "estimated_diameter_max": 437.9505035293
        }
    },
    "is_potentially_hazardous_asteroid": false,
    "close_approach_data": [
        {
            "close_approach_date": "2020-09-12",
            "close_approach_date_full": "2020-Sep-12 15:44",
            "epoch_date_close_approach": 1599925440000,
            "relative_velocity": {
                "kilometers_per_second": "4.7806545398",
                "kilometers_per_hour": "17210.3563433193",
                "miles_per_hour": "10693.846140103"
            },
            "miss_distance": {
                "astronomical": "0.3091828662",
                "lunar": "120.2721349518",
                "kilometers": "46253098.224014994",
                "miles": "28740342.5290111572"
            },
            "orbiting_body": "Earth"
        }
    ],
    "orbital_data": {
        "orbit_id": "1",
        "orbit_determination_date": "2020-09-16 18:12:15",
        "first_observation_date": "2020-09-14",
        "last_observation_date": "2020-09-16",
        "data_arc_in_days": 2,
        "observations_used": 13,
        "orbit_uncertainty": "9",
        "minimum_orbit_intersection": ".282619",
        "jupiter_tisserand_invariant": "3.282",
        "epoch_osculation": "2459108.5",
        "eccentricity": ".4874199537267035",
        "semi_major_axis": "2.49860044581719",
        "inclination": "7.632171212174657",
        "ascending_node_longitude": "141.9908177657967",
        "orbital_period": "1442.592422236293",
        "perihelion_distance": "1.280732732135455",
        "perihelion_argument": "210.3619078878198",
        "aphelion_distance": "3.716468159498926",
        "perihelion_time": "2459100.779276186617",
        "mean_anomaly": "1.926712306244606",
        "mean_motion": ".249550735502916",
        "equinox": "J2000",
        "orbit_class": {
            "orbit_class_type": "AMO",
            "orbit_class_description": "Near-Earth asteroid orbits similar to that of 1221 Amor",
            "orbit_class_range": "1.017 AU < q (perihelion) < 1.3 AU"
        }
    },
    "is_sentry_object": false
}